CCSDS_OMM_VERS = 2.0
CREATION_DATE  = 
ORIGINATOR     = 

OBJECT_NAME    = TWILIGHT D
OBJECT_ID      = 2026-004D
CENTER_NAME    = EARTH
REF_FRAME      = TEME
TIME_SYSTEM    = UTC
MEAN_ELEMENT_THEORY = SGP/SGP4

EPOCH          = 2026-01-21T16:58:11.280864
MEAN_MOTION    = 14.87037300
ECCENTRICITY   = .00072255
INCLINATION    = 97.8022
RA_OF_ASC_NODE = 22.6941
ARG_OF_PERICENTER = 248.9428
MEAN_ANOMALY   = 111.1015

EPHEMERIS_TYPE = 0
CLASSIFICATION_TYPE = U
NORAD_CAT_ID   = 67366
ELEMENT_SET_NO = 999
REV_AT_EPOCH   = 151
BSTAR          = .45828851E-3
MEAN_MOTION_DOT = .4056E-4
MEAN_MOTION_DDOT = 0

CCSDS_OMM_VERS = 2.0
CREATION_DATE  = 
ORIGINATOR     = 

OBJECT_NAME    = TWILIGHT E
OBJECT_ID      = 2026-004E
CENTER_NAME    = EARTH
REF_FRAME      = TEME
TIME_SYSTEM    = UTC
MEAN_ELEMENT_THEORY = SGP/SGP4

EPOCH          = 2026-01-22T12:20:14.687232
MEAN_MOTION    = 14.87135124
ECCENTRICITY   = .00064095
INCLINATION    = 97.7956
RA_OF_ASC_NODE = 23.4883
ARG_OF_PERICENTER = 262.3326
MEAN_ANOMALY   = 97.7162

EPHEMERIS_TYPE = 0
CLASSIFICATION_TYPE = U
NORAD_CAT_ID   = 67367
ELEMENT_SET_NO = 999
REV_AT_EPOCH   = 163
BSTAR          = .67888252E-3
MEAN_MOTION_DOT = .6051E-4
MEAN_MOTION_DDOT = 0

CCSDS_OMM_VERS = 2.0
CREATION_DATE  = 
ORIGINATOR     = 

OBJECT_NAME    = TWILIGHT F
OBJECT_ID      = 2026-004F
CENTER_NAME    = EARTH
REF_FRAME      = TEME
TIME_SYSTEM    = UTC
MEAN_ELEMENT_THEORY = SGP/SGP4

EPOCH          = 2026-01-22T12:19:48.581472
MEAN_MOTION    = 14.87181638
ECCENTRICITY   = .00067078
INCLINATION    = 97.8016
RA_OF_ASC_NODE = 23.4889
ARG_OF_PERICENTER = 248.1936
MEAN_ANOMALY   = 111.8567

EPHEMERIS_TYPE = 0
CLASSIFICATION_TYPE = U
NORAD_CAT_ID   = 67368
ELEMENT_SET_NO = 999
REV_AT_EPOCH   = 163
BSTAR          = .58468012E-3
MEAN_MOTION_DOT = .5209E-4
MEAN_MOTION_DDOT = 0

CCSDS_OMM_VERS = 2.0
CREATION_DATE  = 
ORIGINATOR     = 

OBJECT_NAME    = TWILIGHT G
OBJECT_ID      = 2026-004G
CENTER_NAME    = EARTH
REF_FRAME      = TEME
TIME_SYSTEM    = UTC
MEAN_ELEMENT_THEORY = SGP/SGP4

EPOCH          = 2026-01-22T12:18:56.539296
MEAN_MOTION    = 14.87218844
ECCENTRICITY   = .00058024
INCLINATION    = 97.7947
RA_OF_ASC_NODE = 23.4901
ARG_OF_PERICENTER = 263.7671
MEAN_ANOMALY   = 96.2884

EPHEMERIS_TYPE = 0
CLASSIFICATION_TYPE = U
NORAD_CAT_ID   = 67369
ELEMENT_SET_NO = 999
REV_AT_EPOCH   = 163
BSTAR          = .25660087E-3
MEAN_MOTION_DOT = .2257E-4
MEAN_MOTION_DDOT = 0

CCSDS_OMM_VERS = 2.0
CREATION_DATE  = 
ORIGINATOR     = 

OBJECT_NAME    = TWILIGHT H
OBJECT_ID      = 2026-004H
CENTER_NAME    = EARTH
REF_FRAME      = TEME
TIME_SYSTEM    = UTC
MEAN_ELEMENT_THEORY = SGP/SGP4

EPOCH          = 2026-01-22T12:18:28.934496
MEAN_MOTION    = 14.87269318
ECCENTRICITY   = .0005526
INCLINATION    = 97.7946
RA_OF_ASC_NODE = 23.4899
ARG_OF_PERICENTER = 265.0857
MEAN_ANOMALY   = 94.9729

EPHEMERIS_TYPE = 0
CLASSIFICATION_TYPE = U
NORAD_CAT_ID   = 67370
ELEMENT_SET_NO = 999
REV_AT_EPOCH   = 163
BSTAR          = .29463667E-3
MEAN_MOTION_DOT = .2603E-4
MEAN_MOTION_DDOT = 0

CCSDS_OMM_VERS = 2.0
CREATION_DATE  = 
ORIGINATOR     = 

OBJECT_NAME    = TWILIGHT J
OBJECT_ID      = 2026-004J
CENTER_NAME    = EARTH
REF_FRAME      = TEME
TIME_SYSTEM    = UTC
MEAN_ELEMENT_THEORY = SGP/SGP4

EPOCH          = 2026-01-22T15:28:52.007232
MEAN_MOTION    = 14.87620281
ECCENTRICITY   = .0004525
INCLINATION    = 97.7988
RA_OF_ASC_NODE = 23.6251
ARG_OF_PERICENTER = 247.6790
MEAN_ANOMALY   = 112.3947

EPHEMERIS_TYPE = 0
CLASSIFICATION_TYPE = U
NORAD_CAT_ID   = 67371
ELEMENT_SET_NO = 999
REV_AT_EPOCH   = 165
BSTAR          = .63811383E-3
MEAN_MOTION_DOT = .5751E-4
MEAN_MOTION_DDOT = 0

CCSDS_OMM_VERS = 2.0
CREATION_DATE  = 
ORIGINATOR     = 

OBJECT_NAME    = TWILIGHT K
OBJECT_ID      = 2026-004K
CENTER_NAME    = EARTH
REF_FRAME      = TEME
TIME_SYSTEM    = UTC
MEAN_ELEMENT_THEORY = SGP/SGP4

EPOCH          = 2026-01-22T22:00:01.999584
MEAN_MOTION    = 14.87902252
ECCENTRICITY   = .00028423
INCLINATION    = 97.7968
RA_OF_ASC_NODE = 23.8975
ARG_OF_PERICENTER = 242.7088
MEAN_ANOMALY   = 145.0051

EPHEMERIS_TYPE = 0
CLASSIFICATION_TYPE = U
NORAD_CAT_ID   = 67372
ELEMENT_SET_NO = 999
REV_AT_EPOCH   = 292
BSTAR          = .54876164E-2
MEAN_MOTION_DOT = .50539E-3
MEAN_MOTION_DDOT = 0

CCSDS_OMM_VERS = 2.0
CREATION_DATE  = 
ORIGINATOR     = 

OBJECT_NAME    = TWILIGHT L
OBJECT_ID      = 2026-004L
CENTER_NAME    = EARTH
REF_FRAME      = TEME
TIME_SYSTEM    = UTC
MEAN_ELEMENT_THEORY = SGP/SGP4

EPOCH          = 2026-01-22T22:00:01.999584
MEAN_MOTION    = 14.87506690
ECCENTRICITY   = .00045511
INCLINATION    = 97.7981
RA_OF_ASC_NODE = 23.8916
ARG_OF_PERICENTER = 252.8128
MEAN_ANOMALY   = 118.9614

EPHEMERIS_TYPE = 0
CLASSIFICATION_TYPE = U
NORAD_CAT_ID   = 67373
ELEMENT_SET_NO = 999
REV_AT_EPOCH   = 293
BSTAR          = .55451258E-2
MEAN_MOTION_DOT = .50581E-3
MEAN_MOTION_DDOT = 0

CCSDS_OMM_VERS = 2.0
CREATION_DATE  = 
ORIGINATOR     = 

OBJECT_NAME    = TWILIGHT M
OBJECT_ID      = 2026-004M
CENTER_NAME    = EARTH
REF_FRAME      = TEME
TIME_SYSTEM    = UTC
MEAN_ELEMENT_THEORY = SGP/SGP4

EPOCH          = 2026-01-22T22:00:01.999584
MEAN_MOTION    = 14.87861036
ECCENTRICITY   = .00031167
INCLINATION    = 97.7965
RA_OF_ASC_NODE = 23.8951
ARG_OF_PERICENTER = 242.8010
MEAN_ANOMALY   = 141.7488

EPHEMERIS_TYPE = 0
CLASSIFICATION_TYPE = U
NORAD_CAT_ID   = 67374
ELEMENT_SET_NO = 999
REV_AT_EPOCH   = 218
BSTAR          = .56406727E-2
MEAN_MOTION_DOT = .51908E-3
MEAN_MOTION_DDOT = 0

CCSDS_OMM_VERS = 2.0
CREATION_DATE  = 
ORIGINATOR     = 

OBJECT_NAME    = TWILIGHT N
OBJECT_ID      = 2026-004N
CENTER_NAME    = EARTH
REF_FRAME      = TEME
TIME_SYSTEM    = UTC
MEAN_ELEMENT_THEORY = SGP/SGP4

EPOCH          = 2026-01-22T22:00:01.999584
MEAN_MOTION    = 14.87867089
ECCENTRICITY   = .00036544
INCLINATION    = 97.8001
RA_OF_ASC_NODE = 23.8989
ARG_OF_PERICENTER = 235.1340
MEAN_ANOMALY   = 150.3778

EPHEMERIS_TYPE = 0
CLASSIFICATION_TYPE = U
NORAD_CAT_ID   = 67375
ELEMENT_SET_NO = 999
REV_AT_EPOCH   = 261
BSTAR          = .56609507E-2
MEAN_MOTION_DOT = .52106E-3
MEAN_MOTION_DDOT = 0

CCSDS_OMM_VERS = 2.0
CREATION_DATE  = 
ORIGINATOR     = 

OBJECT_NAME    = TWILIGHT P
OBJECT_ID      = 2026-004P
CENTER_NAME    = EARTH
REF_FRAME      = TEME
TIME_SYSTEM    = UTC
MEAN_ELEMENT_THEORY = SGP/SGP4

EPOCH          = 2026-01-22T22:00:01.999584
MEAN_MOTION    = 14.87740432
ECCENTRICITY   = .00040541
INCLINATION    = 97.7999
RA_OF_ASC_NODE = 23.8956
ARG_OF_PERICENTER = 241.8984
MEAN_ANOMALY   = 137.9204

EPHEMERIS_TYPE = 0
CLASSIFICATION_TYPE = U
NORAD_CAT_ID   = 67376
ELEMENT_SET_NO = 999
REV_AT_EPOCH   = 261
BSTAR          = .56405033E-2
MEAN_MOTION_DOT = .51755E-3
MEAN_MOTION_DDOT = 0

CCSDS_OMM_VERS = 2.0
CREATION_DATE  = 
ORIGINATOR     = 

OBJECT_NAME    = TWILIGHT Q
OBJECT_ID      = 2026-004Q
CENTER_NAME    = EARTH
REF_FRAME      = TEME
TIME_SYSTEM    = UTC
MEAN_ELEMENT_THEORY = SGP/SGP4

EPOCH          = 2026-01-22T22:00:01.999584
MEAN_MOTION    = 14.87888567
ECCENTRICITY   = .00036068
INCLINATION    = 97.8001
RA_OF_ASC_NODE = 23.8991
ARG_OF_PERICENTER = 234.0297
MEAN_ANOMALY   = 152.1675

EPHEMERIS_TYPE = 0
CLASSIFICATION_TYPE = U
NORAD_CAT_ID   = 67377
ELEMENT_SET_NO = 999
REV_AT_EPOCH   = 282
BSTAR          = .55885463E-2
MEAN_MOTION_DOT = .51461E-3
MEAN_MOTION_DDOT = 0

