TWILIGHT D              
1 67366U 26004D   26021.70707501  .00004056  00000+0  45829-3 0  9993
2 67366  97.8022  22.6941 0007225 248.9428 111.1015 14.87037300  1515
TWILIGHT E              
1 67367U 26004E   26022.51405888  .00006051  00000+0  67888-3 0  9993
2 67367  97.7956  23.4883 0006409 262.3326  97.7162 14.87135124  1633
TWILIGHT F              
1 67368U 26004F   26022.51375673  .00005209  00000+0  58468-3 0  9990
2 67368  97.8016  23.4889 0006707 248.1936 111.8567 14.87181638  1636
TWILIGHT G              
1 67369U 26004G   26022.51315439  .00002257  00000+0  25660-3 0  9993
2 67369  97.7947  23.4901 0005802 263.7671  96.2884 14.87218844  1636
TWILIGHT H              
1 67370U 26004H   26022.51283489  .00002603  00000+0  29464-3 0  9995
2 67370  97.7946  23.4899 0005526 265.0857  94.9729 14.87269318  1632
TWILIGHT J              
1 67371U 26004J   26022.64504638  .00005751  00000+0  63811-3 0  9993
2 67371  97.7988  23.6251 0004525 247.6790 112.3947 14.87620281  1652
TWILIGHT K              
1 67372U 26004K   26022.91668981  .00050539  00000+0  54876-2 0  9990
2 67372  97.7968  23.8975 0002842 242.7088 145.0051 14.87902252  2923
TWILIGHT L              
1 67373U 26004L   26022.91668981  .00050581  00000+0  55451-2 0  9998
2 67373  97.7981  23.8916 0004551 252.8128 118.9614 14.87506690  2931
TWILIGHT M              
1 67374U 26004M   26022.91668981  .00051908  00000+0  56407-2 0  9995
2 67374  97.7965  23.8951 0003116 242.8010 141.7488 14.87861036  2186
TWILIGHT N              
1 67375U 26004N   26022.91668981  .00052106  00000+0  56610-2 0  9993
2 67375  97.8001  23.8989 0003654 235.1340 150.3778 14.87867089  2618
TWILIGHT P              
1 67376U 26004P   26022.91668981  .00051755  00000+0  56405-2 0  9995
2 67376  97.7999  23.8956 0004054 241.8984 137.9204 14.87740432  2618
TWILIGHT Q              
1 67377U 26004Q   26022.91668981  .00051461  00000+0  55885-2 0  9991
2 67377  97.8001  23.8991 0003606 234.0297 152.1675 14.87888567  2822
